{
    "links": {
        "self": "http://www.neowsapp.com/rest/v1/neo/3719997?api_key=iIulBulltgU6a56xZRHN4H3l9WmuAYTsLGpBGhQ2"
    },
    "id": "3719997",
    "neo_reference_id": "3719997",
    "name": "(2015 KQ120)",
    "designation": "2015 KQ120",
    "nasa_jpl_url": "http://ssd.jpl.nasa.gov/sbdb.cgi?sstr=3719997",
    "absolute_magnitude_h": 26.7,
    "estimated_diameter": {
        "kilometers": {
            "estimated_diameter_min": 0.0121494041,
            "estimated_diameter_max": 0.0271668934
        },
        "meters": {
            "estimated_diameter_min": 12.14940408,
            "estimated_diameter_max": 27.1668934089
        },
        "miles": {
            "estimated_diameter_min": 0.0075492874,
            "estimated_diameter_max": 0.0168807197
        },
        "feet": {
            "estimated_diameter_min": 39.8602508817,
            "estimated_diameter_max": 89.1302305717
        }
    },
    "is_potentially_hazardous_asteroid": false,
    "close_approach_data": [
        {
            "close_approach_date": "2013-08-25",
            "close_approach_date_full": "2013-Aug-25 03:27",
            "epoch_date_close_approach": 1377401220000,
            "relative_velocity": {
                "kilometers_per_second": "11.0723301084",
                "kilometers_per_hour": "39860.388390375",
                "miles_per_hour": "24767.6952195638"
            },
            "miss_distance": {
                "astronomical": "0.140888461",
                "lunar": "54.805611329",
                "kilometers": "21076613.67317807",
                "miles": "13096400.448354566"
            },
            "orbiting_body": "Earth"
        },
        {
            "close_approach_date": "2015-05-31",
            "close_approach_date_full": "2015-May-31 20:36",
            "epoch_date_close_approach": 1433104560000,
            "relative_velocity": {
                "kilometers_per_second": "7.3214760511",
                "kilometers_per_hour": "26357.313783971",
                "miles_per_hour": "16377.4097787124"
            },
            "miss_distance": {
                "astronomical": "0.0219349881",
                "lunar": "8.5327103709",
                "kilometers": "3281427.498235347",
                "miles": "2038984.4984359086"
            },
            "orbiting_body": "Earth"
        },
        {
            "close_approach_date": "2017-04-28",
            "close_approach_date_full": "2017-Apr-28 16:32",
            "epoch_date_close_approach": 1493397120000,
            "relative_velocity": {
                "kilometers_per_second": "19.8096822873",
                "kilometers_per_hour": "71314.8562343671",
                "miles_per_hour": "44312.2783085155"
            },
            "miss_distance": {
                "astronomical": "0.4375175329",
                "lunar": "170.1943202981",
                "kilometers": "65451691.009494923",
                "miles": "40669794.9098510174"
            },
            "orbiting_body": "Earth"
        },
        {
            "close_approach_date": "2044-05-16",
            "close_approach_date_full": "2044-May-16 09:32",
            "epoch_date_close_approach": 2347003920000,
            "relative_velocity": {
                "kilometers_per_second": "11.1816194117",
                "kilometers_per_hour": "40253.8298820563",
                "miles_per_hour": "25012.1644619921"
            },
            "miss_distance": {
                "astronomical": "0.1445254398",
                "lunar": "56.2203960822",
                "kilometers": "21620697.954893226",
                "miles": "13434478.7441134788"
            },
            "orbiting_body": "Earth"
        }
    ],
    "orbital_data": {
        "orbit_id": "9",
        "orbit_determination_date": "2017-04-06 08:33:30",
        "first_observation_date": "2015-05-22",
        "last_observation_date": "2015-05-31",
        "data_arc_in_days": 9,
        "observations_used": 26,
        "orbit_uncertainty": "7",
        "minimum_orbit_intersection": ".00583936",
        "jupiter_tisserand_invariant": "4.370",
        "epoch_osculation": "2459000.5",
        "eccentricity": ".3675107833238366",
        "semi_major_axis": "1.550918555808331",
        "inclination": ".4451660547226684",
        "ascending_node_longitude": "180.6361913588374",
        "orbital_period": "705.4754658375688",
        "perihelion_distance": ".9809392624917378",
        "perihelion_argument": "103.3028366043864",
        "aphelion_distance": "2.120897849124924",
        "perihelion_time": "2459319.494537500113",
        "mean_anomaly": "197.2189550720941",
        "mean_motion": ".510294145484696",
        "equinox": "J2000",
        "orbit_class": {
            "orbit_class_type": "APO",
            "orbit_class_description": "Near-Earth asteroid orbits which cross the Earth’s orbit similar to that of 1862 Apollo",
            "orbit_class_range": "a (semi-major axis) > 1.0 AU; q (perihelion) < 1.017 AU"
        }
    },
    "is_sentry_object": false
}